GUOWANG TEST OBJECT C   
1 69322U 26120C   26156.05703209  .00021135  00000+0  53989-3 0  9997
2 69322  54.9977  82.3496 0009336 301.6067  58.4050 15.39445008   822
GUOWANG TEST OBJECT D   
1 69323U 26120D   26155.66644343  .00032137  00000+0  80800-3 0  9993
2 69323  55.0029  84.1123 0008002 301.7889  58.2360 15.39704502   764
QIANFAN-163             
1 69325U 26121A   26156.67616235  .00000026  00000+0  18655-4 0  9999
2 69325  89.0164 301.6802 0018978 221.2223 138.7501 13.60350761   593
QIANFAN-164             
1 69326U 26121B   26156.67568023  .00000123  00000+0  14779-3 0  9991
2 69326  89.0160 301.6796 0018350 222.6796 137.2936 13.60503905   592
SZ-22 MODULE            
1 69328U 25272C   26155.94793699  .00022470  00000+0  27599-3 0  9990
2 69328  41.4810  36.4880 0008356 350.2706   9.7969 15.59719201  1418
