OBJECT_NAME,OBJECT_ID,EPOCH,MEAN_MOTION,ECCENTRICITY,INCLINATION,RA_OF_ASC_NODE,ARG_OF_PERICENTER,MEAN_ANOMALY,EPHEMERIS_TYPE,CLASSIFICATION_TYPE,NORAD_CAT_ID,ELEMENT_SET_NO,REV_AT_EPOCH,BSTAR,MEAN_MOTION_DOT,MEAN_MOTION_DDOT
GUOWANG TEST OBJECT C,2026-120C,2026-06-05T01:22:07.572576,15.39445008,.00093365,54.9977,82.3496,301.6067,58.4050,0,U,69322,999,82,.53988585E-3,.21135E-3,0
GUOWANG TEST OBJECT D,2026-120D,2026-06-04T15:59:40.712352,15.39704502,.00080029,55.0029,84.1123,301.7889,58.2360,0,U,69323,999,76,.80800046E-3,.32137E-3,0
QIANFAN-163,2026-121A,2026-06-05T16:13:40.427040,13.60350761,.0018978,89.0164,301.6802,221.2223,138.7501,0,U,69325,999,59,.18655E-4,.26E-6,0
QIANFAN-164,2026-121B,2026-06-05T16:12:58.771872,13.60503905,.001835,89.0160,301.6796,222.6796,137.2936,0,U,69326,999,59,.14779E-3,.123E-5,0
SZ-22 MODULE,2025-272C,2026-06-04T22:45:01.755936,15.59719201,.0008356,41.4810,36.4880,350.2706,9.7969,0,U,69328,999,141,.27599E-3,.2247E-3,0
